LYNK TOWER 5            
1 59121U 24043Z   26068.92489786  .00009048  00000+0  31902-3 0  9994
2 59121  97.5458 204.7305 0010406 234.6422 125.3846 15.29454506111860
STARLINK-35407          
1 66334U 25253R   26068.46894423  .00025768  00000+0  94236-3 0  9995
2 66334  42.9964 213.5000 0001637 213.2147 146.8603 15.27588831 20217
